NORAD_CAT_ID,OBJECT_NAME,OBJECT_TYPE,EPOCH,MEAN_MOTION,ECCENTRICITY,INCLINATION,RA_OF_ASC_NODE,ARG_OF_PERICENTER,MEAN_ANOMALY,BSTAR,MEAN_MOTION_DOT,MEAN_MOTION_DDOT,TLE_LINE0,TLE_LINE1,TLE_LINE2,SEMIMAJOR_AXIS,PERIOD,APOGEE,PERIGEE,DECAYED
55313.0,STARLINK-5313,PAYLOAD,2023-09-01 02:01:28,14.9832537,0.0002656,70.0002,165.6639,265.7672,94.3183,2.5264e-05,2.08e-06,0.0,0 STARLINK-5313,1 55313U 23010AW  23244.08435748  .00000208  00000-0  25264-4 0  9990,2 55313  70.0002 165.6639 0002656 265.7672  94.3183 14.98325370 35556,6950.207,96.107,573.918,570.226,0.0
55313.0,STARLINK-5313,PAYLOAD,2023-09-01 11:38:13,14.98394236,0.0003098,70.0009,164.6538,270.346,89.7344,7.0038e-05,7.44e-06,0.0,0 STARLINK-5313,1 55313U 23010AW  23244.48487278  .00000744  00000-0  70038-4 0  9993,2 55313  70.0009 164.6538 0003098 270.3460  89.7344 14.98394236 35619,6949.994,96.103,574.012,569.706,0.0
55313.0,STARLINK-5313,PAYLOAD,2023-09-02 03:39:36,14.98338848,0.0002794,69.9993,162.9688,271.8722,88.2117,9.3994e-05,1.029e-05,0.0,0 STARLINK-5313,1 55313U 23010AW  23245.15250458  .00001029  00000-0  93994-4 0  9999,2 55313  69.9993 162.9688 0002794 271.8722  88.2117 14.98338848 35714,6950.166,96.106,573.972,570.089,0.0
55313.0,STARLINK-5313,PAYLOAD,2023-09-02 19:40:57,14.98328089,0.0003231,69.9974,161.2825,282.2026,77.8771,-2.6048e-05,-4.04e-06,0.0,0 STARLINK-5313,1 55313U 23010AW  23245.82011399 -.00000404  00000-0 -26048-4 0  9996,2 55313  69.9974 161.2825 0003231 282.2026  77.8771 14.98328089 37008,6950.199,96.107,574.309,569.818,0.0
55313.0,STARLINK-5313,PAYLOAD,2023-09-03 00:29:22,14.98329586,0.0002867,69.999,160.7805,273.597,86.4861,-3.7525e-05,-5.41e-06,0.0,0 STARLINK-5313,1 55313U 23010AW  23246.02039352 -.00000541  00000-0 -37525-4 0  9992,2 55313  69.9990 160.7805 0002867 273.5970  86.4861 14.98329586 35842,6950.194,96.107,574.052,570.067,0.0
55313.0,STARLINK-5313,PAYLOAD,2023-09-03 11:42:18,14.98325528,0.0002743,69.9997,159.6025,274.2236,85.861,-5.5257e-05,-7.52e-06,0.0,0 STARLINK-5313,1 55313U 23010AW  23246.48771667 -.00000752  00000-0 -55257-4 0  9990,2 55313  69.9997 159.6025 0002743 274.2236  85.8610 14.98325528 37104,6950.207,96.107,573.978,570.165,0.0
55313.0,STARLINK-5313,PAYLOAD,2023-09-04 00:31:23,14.98324445,0.0002956,69.9993,158.2562,272.8394,87.2427,-3.4827e-05,-5.08e-06,0.0,0 STARLINK-5313,1 55313U 23010AW  23247.02179579 -.00000508  00000-0 -34827-4 0  9994,2 55313  69.9993 158.2562 0002956 272.8394  87.2427 14.98324445 35990,6950.21,96.107,574.13,570.021,0.0
55313.0,STARLINK-5313,PAYLOAD,2023-09-04 11:44:19,14.98327218,0.0002927,69.9993,157.078,271.872,88.2104,3.4426e-06,-5.2e-07,0.0,0 STARLINK-5313,1 55313U 23010AW  23247.48911379 -.00000052  00000-0  34426-5 0  9995,2 55313  69.9993 157.0780 0002927 271.8720  88.2104 14.98327218 37254,6950.201,96.107,574.101,570.032,0.0
55313.0,STARLINK-5313,PAYLOAD,2023-09-05 00:33:23,14.98329098,0.0002939,69.9995,155.7311,271.2453,88.837,4.0338e-05,3.88e-06,0.0,0 STARLINK-5313,1 55313U 23010AW  23248.02319233  .00000388  00000-0  40338-4 0  9996,2 55313  69.9995 155.7311 0002939 271.2453  88.8370 14.98329098 36147,6950.196,96.107,574.103,570.018,0.0
55313.0,STARLINK-5313,PAYLOAD,2023-09-05 05:21:47,14.98332272,0.0002946,69.9993,155.226,271.8726,88.2096,6.2961e-05,6.58e-06,0.0,0 STARLINK-5313,1 55313U 23010AW  23248.22346961  .00000658  00000-0  62961-4 0  9992,2 55313  69.9993 155.2260 0002946 271.8726  88.2096 14.98332272 37362,6950.186,96.107,574.098,570.003,0.0
55313.0,STARLINK-5313,PAYLOAD,2023-09-06 00:35:24,14.98329464,0.0002872,69.9995,153.2074,267.7729,92.3101,5.7596e-05,5.94e-06,0.0,0 STARLINK-5313,1 55313U 23010AW  23249.02459114  .00000594  00000-0  57596-4 0  9993,2 55313  69.9995 153.2074 0002872 267.7729  92.3101 14.98329464 36293,6950.195,96.107,574.056,570.063,0.0
55313.0,STARLINK-5313,PAYLOAD,2023-09-06 05:23:49,14.98311806,0.0002721,69.9998,152.7019,269.7903,90.2944,0.0004654,5.462e-05,0.0,0 STARLINK-5313,1 55313U 23010AW  23249.22487283  .00005462  00000-0  46540-3 0  9998,2 55313  69.9998 152.7019 0002721 269.7903  90.2944 14.98311806 36325,6950.249,96.108,574.005,570.223,0.0
55313.0,STARLINK-5313,PAYLOAD,2023-09-07 00:37:25,14.98331754,0.0003133,69.9998,150.6821,276.3317,83.7485,-1.3733e-06,-1.09e-06,0.0,0 STARLINK-5313,1 55313U 23010AW  23250.02598968 -.00000109  00000-0 -13733-5 0  9996,2 55313  69.9998 150.6821 0003133 276.3317  83.7485 14.98331754 36448,6950.187,96.107,574.23,569.875,0.0
55313.0,STARLINK-5313,PAYLOAD,2023-09-07 16:38:46,14.98331337,0.0002667,70.0011,148.9987,273.5397,86.5457,-3.8584e-05,-5.53e-06,0.0,0 STARLINK-5313,1 55313U 23010AW  23250.69359012 -.00000553  00000-0 -38584-4 0  9997,2 55313  70.0011 148.9987 0002667 273.5397  86.5457 14.98331337 37738,6950.189,96.107,573.907,570.2,0.0
55313.0,STARLINK-5313,PAYLOAD,2023-09-08 02:15:34,14.98331682,0.0002708,70.0004,147.9885,273.4715,86.6134,-3.9172e-05,-5.6e-06,0.0,0 STARLINK-5313,1 55313U 23010AW  23251.09414915 -.00000560  00000-0 -39172-4 0  9998,2 55313  70.0004 147.9885 0002708 273.4715  86.6134 14.98331682 36606,6950.188,96.107,573.935,570.171,0.0
55313.0,STARLINK-5313,PAYLOAD,2023-09-08 18:16:54,14.98329605,0.0002823,69.9998,146.306,264.9955,95.0882,-6.2607e-07,-1e-06,0.0,0 STARLINK-5313,1 55313U 23010AW  23251.76174734 -.00000100  00000-0 -62607-6 0  9995,2 55313  69.9998 146.3060 0002823 264.9955  95.0882 14.98329605 37890,6950.194,96.107,574.021,570.097,0.0
55313.0,STARLINK-5313,PAYLOAD,2023-09-09 02:17:35,14.98333612,0.0002898,69.9996,145.4638,267.6554,92.4273,-4.2531e-05,-6e-06,0.0,0 STARLINK-5313,1 55313U 23010AW  23252.09554627 -.00000600  00000-0 -42531-4 0  9992,2 55313  69.9996 145.4638 0002898 267.6554  92.4273 14.98333612 36758,6950.182,96.107,574.061,570.033,0.0
55313.0,STARLINK-5313,PAYLOAD,2023-09-09 10:18:15,14.98329092,0.0003133,69.9992,144.6221,270.6756,89.4044,-7.1561e-06,-1.78e-06,0.0,0 STARLINK-5313,1 55313U 23010AW  23252.42934769 -.00000178  00000-0 -71561-5 0  9994,2 55313  69.9992 144.6221 0003133 270.6756  89.4044 14.98329092 37990,6950.196,96.107,574.238,569.883,0.0
55313.0,STARLINK-5313,PAYLOAD,2023-09-09 18:18:56,14.98326965,0.0003049,69.9991,143.7805,268.6841,91.3969,-3.1197e-05,-4.65e-06,0.0,0 STARLINK-5313,1 55313U 23010AW  23252.76314982 -.00000465  00000-0 -31197-4 0  9999,2 55313  69.9991 143.7805 0003049 268.6841  91.3969 14.98326965 36853,6950.202,96.107,574.186,569.948,0.0
55313.0,STARLINK-5313,PAYLOAD,2023-09-10 02:19:36,14.9833125,0.0002997,69.9994,142.9388,267.7511,92.3305,1.5538e-05,9.2e-07,0.0,0 STARLINK-5313,1 55313U 23010AW  23253.09694584  .00000092  00000-0  15538-4 0  9990,2 55313  69.9994 142.9388 0002997 267.7511  92.3305 14.98331250 38094,6950.189,96.107,574.137,569.971,0.0
55313.0,STARLINK-5313,PAYLOAD,2023-09-10 18:20:57,14.98323988,0.0002975,69.9993,141.2557,267.255,92.8269,-2.2468e-05,-3.61e-06,0.0,0 STARLINK-5313,1 55313U 23010AW  23253.76455197 -.00000361  00000-0 -22468-4 0  9990,2 55313  69.9993 141.2557 0002975 267.2550  92.8269 14.98323988 37000,6950.211,96.107,574.144,570.009,0.0
55313.0,STARLINK-5313,PAYLOAD,2023-09-11 02:21:37,14.98325584,0.0002968,69.9996,140.4145,268.1991,91.8828,2.326e-05,1.85e-06,0.0,0 STARLINK-5313,1 55313U 23010AW  23254.09835075  .00000185  00000-0  23260-4 0  9997,2 55313  69.9996 140.4145 0002968 268.1991  91.8828 14.98325584 38249,6950.207,96.107,574.134,570.009,0.0
55313.0,STARLINK-5313,PAYLOAD,2023-09-11 16:46:49,14.98329595,0.0003061,69.9996,138.8995,269.6465,90.4343,7.6152e-05,8.16e-06,0.0,0 STARLINK-5313,1 55313U 23010AW  23254.69918651  .00000816  00000-0  76152-4 0  9994,2 55313  69.9996 138.8995 0003061 269.6465  90.4343 14.98329595 37141,6950.194,96.107,574.187,569.932,0.0
55313.0,STARLINK-5313,PAYLOAD,2023-09-12 02:23:37,14.98335494,0.0002943,69.9996,137.8893,268.4912,91.591,8.8333e-05,9.61e-06,0.0,0 STARLINK-5313,1 55313U 23010AW  23255.09974196  .00000961  00000-0  88333-4 0  9990,2 55313  69.9996 137.8893 0002943 268.4912  91.5910 14.98335494 38394,6950.176,96.107,574.086,569.995,0.0
55313.0,STARLINK-5313,PAYLOAD,2023-09-12 18:24:59,14.98326214,0.0002871,69.9997,136.2059,269.7256,90.3574,2.3315e-06,-6.5e-07,0.0,0 STARLINK-5313,1 55313U 23010AW  23255.76734987 -.00000065  00000-0  23315-5 0  9992,2 55313  69.9997 136.2059 0002871 269.7256  90.3574 14.98326214 37300,6950.205,96.107,574.065,570.074,0.0
55313.0,STARLINK-5313,PAYLOAD,2023-09-12 21:37:15,14.98331151,0.0002766,69.9994,135.8693,263.692,96.3924,-4.3755e-05,-6.15e-06,0.0,0 STARLINK-5313,1 55313U 23010AW  23255.90086823 -.00000615  00000-0 -43755-4 0  9998,2 55313  69.9994 135.8693 0002766 263.6920  96.3924 14.98331151 38515,6950.189,96.107,573.977,570.132,0.0
55313.0,STARLINK-5313,PAYLOAD,2023-09-13 02:25:38,14.98324738,0.0002514,69.9994,135.3646,258.3999,101.6878,0.00019724,2.261e-05,0.0,0 STARLINK-5313,1 55313U 23010AW  23256.10114574  .00002261  00000-0  19724-3 0  9991,2 55313  69.9994 135.3646 0002514 258.3999 101.6878 14.98324738 38540,6950.209,96.107,573.821,570.327,0.0
55313.0,STARLINK-5313,PAYLOAD,2023-09-13 18:26:59,14.98324901,0.0002501,69.9995,133.6816,262.4426,97.6449,0.00014942,1.69e-05,0.0,0 STARLINK-5313,1 55313U 23010AW  23256.76874388  .00001690  00000-0  14942-3 0  9991,2 55313  69.9995 133.6816 0002501 262.4426  97.6449 14.98324901 37457,6950.209,96.107,573.812,570.335,0.0
55313.0,STARLINK-5313,PAYLOAD,2023-09-13 21:39:15,14.98334644,0.0002816,69.9991,133.3454,265.9907,94.0931,-1.1134e-05,-2.26e-06,0.0,0 STARLINK-5313,1 55313U 23010AW  23256.90226283 -.00000226  00000-0 -11134-4 0  9999,2 55313  69.9991 133.3454 0002816 265.9907  94.0931 14.98334644 38665,6950.179,96.107,574.001,570.086,0.0
55313.0,STARLINK-5313,PAYLOAD,2023-09-14 00:51:31,14.98334593,0.0002835,69.9991,133.0088,265.7245,94.359,5.7234e-07,-8.6e-07,0.0,0 STARLINK-5313,1 55313U 23010AW  23257.03578177 -.00000086  00000-0  57234-6 0  9992,2 55313  69.9991 133.0088 0002835 265.7245  94.3590 14.98334593 38688,6950.179,96.107,574.014,570.073,0.0
